FENGYUN 1C DEB          
1 31342U 99025BQW 17345.26338926  .00000027  00000-0  25232-4 0  9994
2 31342  99.0199 160.5406 0116332 157.2890 203.3500 14.34452488560391
